STARLINK-30069          
1 56834U 23079M   26067.48212902 -.00002416  00000+0 -80472-4 0  9995
2 56834  42.9986 110.4464 0000469 272.6695  87.4103 15.26726881152740
STARLINK-31760          
1 59869U 24098M   26067.97497375 -.00003597  00000+0 -12119-3 0  9994
2 59869  43.0007 282.3086 0001547 268.2313  91.8362 15.27590493101730
